#dP2024 11 26  0  0  0.00000000      96 __u+U IGS20 FIT  IAC
## 2342 172800.00000000   900.00000000 60640 0.0000000000000
+  131   C01C02C03C04C05C06C07C08C09C10C11C12C13C14C16C19C20
+        C21C22C23C24C25C26C27C28C29C30C32C33C34C35C36C37C38
+        C39C40C41C42C43C44C45C59C60C62E02E03E04E05E06E07E08
+        E09E10E11E12E13E14E15E18E19E21E24E25E26E27E29E30E31
+        E33E34E36G02G03G04G05G06G07G08G09G10G11G12G13G14G15
+        G16G17G18G19G20G21G22G23G24G25G26G27G28G29G30G31G32
+        J02J03J04J07R01R02R03R04R05R06R07R08R09R10R11R12R13
+        R14R15R16R17R18R19R20R21R22R23R24R26  0  0  0  0  0
++        16 16  0 18 16  9  9 10  9  9  9  9  9  9  9  7  7
++         7  7  7  7  7  7  7  7  7  7  7  7  7  7  7  7  8
++         8  8  7  7  7  7  7 17 16 17  4  4  4  4  4  4  4
++         4  4  4  4  4  4  4  5  4  4  4  4  4  4  4  4  4
++         5  4  4  4  4  4  4  4  4  4  4  4  4  4  4  4  3
++         4  4  4  4  4  4  4  4  3  4  4  4  4  4  3  4  3
++         9  9 10 16  7  8  6  6  6 13  6  6  6 14  6  6 13
++         6  6  6  6  6  7  8  6  6 13  6  8  0  0  0  0  0
%c M  cc GPS ccc cccc cccc cccc cccc ccccc ccccc ccccc ccccc
%c cc cc ccc ccc cccc cccc cccc cccc ccccc ccccc ccccc ccccc
%f  0.0000000  0.000000000  0.00000000000  0.000000000000000
%f  0.0000000  0.000000000  0.00000000000  0.000000000000000
%i    0    0    0    0      0      0      0      0         0
%i    0    0    0    0      0      0      0      0         0
/* INFORMATION & ANALYSIS CENTER (IAC)            RAPID DATA
/* S/V CLOCKS ARE ALIGNED TO GNSS TIME                      
/* G:C1WC2W R:C1PC2P E:C1XC5X C:C2IC6I J:C1CC2S             
/* PCV:IGS20_2317 OL/AL:FES2004  NONE     YN ORB:CoN CLK:CoN
*  2024 11 26  9 30  0.00000000
PC01 -34300.427813  24478.763081  -1357.556075   -369.991447
PC02   4472.680263  41903.715954  -1194.616780    766.220428
PC03      0.000000      0.000000      0.000000 999999.999999
PC04 -39641.670427  14347.155620  -1438.405617   -513.242815
PC05  21901.838304  35979.543881   -445.980324   -181.932047
PC06 -18087.789555  32988.560631  18818.749858    478.566913
PC07  -3302.641459  38189.909406  17948.108751   -172.777213
PC08  -6306.777764  19022.049311 -37103.461869   -838.670276
PC09 -11516.191426  31666.000706  25429.115115   -688.615712
PC10   2541.751769  40498.750846  12863.649030   -303.008510
PC11  16568.384321 -20532.939845  -9002.820246    260.699576
PC12  17287.053893  -2591.443035 -21705.127982   -243.690590
PC13    392.334486  22001.755972 -35749.458851     85.264895
PC14  10951.052722 -11286.126714  23053.853989   -472.231562
PC16 -21018.821497  32658.968834  16266.867823     72.816124
PC19  -3080.904013  18807.699132 -20374.326558   -971.539217
PC20 -15990.394319   3739.229525 -22555.984327   -901.808537
PC21  20513.165694  15306.909516  11150.725173   -912.385124
PC22  12432.510207  24166.222387  -6391.912109    189.795643
PC23  -6703.075277 -15437.558388 -22265.551753   -897.566732
PC24  27011.017007  -5866.140524  -3749.981443    753.022753
PC25  14120.808803 -15429.141123 -18479.817055    571.508834
PC26  23942.855846   6076.232267  12925.511575   -382.649889
PC27 -14164.117541  -7688.266557  22767.052396    401.489057
PC28  -3533.747182 -21816.171113  17048.031216    312.851909
PC29 -11221.579830  25503.501883   1553.378994    367.311143
PC30 -18107.069636  11629.906652  17751.163108     37.206818
PC32 -20612.180064 -15233.680620 -11018.226252   -816.929532
PC33   3095.174195 -18751.564437  20426.485007   -949.157111
PC34  18000.421833 -13418.638401 -16592.858971    572.540376
PC35   3893.614722  22135.653239 -16529.799147    197.975029
PC36 -14092.841256  15217.211951  18691.819089    227.749954
PC37 -23667.983495  -6789.788926 -13162.359666   -894.115349
PC38 -13793.770387  18974.192984 -35005.048217    193.509021
PC39 -22923.494397  33394.520551  11245.238583    -10.425904
PC40  -7731.054945  35678.878684  21399.418025   -104.774891
PC41 -11791.882653 -24198.943890   7379.469958   -887.730853
PC42  17081.128348  -1848.653458  22032.194818   -523.983351
PC43  11820.609829 -25166.276273  -2508.549397     93.399567
PC44  14554.268014   7306.608878 -22671.256990    663.577411
PC45   5957.463754  15476.311574  22430.408453   -175.025469
PC59 -32279.471294  27083.605719  -1709.287077     -0.960228
PC60   7293.530977  41476.043475  -1789.942746      0.565736
PC62 -39631.140490  14392.391072   1259.501474      0.249772
PE02    545.782116 -18187.182164 -23358.744129    177.692358
PE03   3245.007818 -28858.320818   5697.456255   -155.951128
PE04   9698.826192  24740.408532  13037.851801    -91.812386
PE05  13993.881026 -15913.635366  20662.407666   4805.067452
PE06  14368.653371  16625.942096  19807.736246    -51.739486
PE07 -16585.279271  -6760.597909 -23568.332173   -154.908684
PE08  -9198.877055 -25216.015735 -12477.685490   -374.099618
PE09  16428.695698   6872.110253  23639.171896   -677.598493
PE10  17759.980053   6367.816663 -22801.680691   -672.423315
PE11  24418.325135  -2183.338752 -16594.243829    581.719083
PE12   9502.586439  13016.339655 -24823.341912  -1312.906327
PE13 -24123.345993   1749.671944  17073.692936    -27.231776
PE14  18034.936757  -4737.731442 -21353.771013    412.499674
PE15  -8717.018871 -13429.568027  24910.268823   -141.384938
PE18 -11331.277068  23350.772203  14076.146652    815.872269
PE19  -4560.049319  28288.643891  -7417.724024    992.685863
PE21 -19252.745774   6415.998722  21547.510316   -630.557428
PE24  27134.354728   9557.527528  -6930.046961  -1121.074972
PE25  19583.610026  -6072.116756 -21343.832477     11.634320
PE26 -24963.043054  15877.514529  -1030.001098   -200.630754
PE27 -27168.589635  -9489.480981   6958.960521   -514.004106
PE29 -14034.630407  16247.121369 -20380.429725    -48.748335
PE30 -18973.491703 -19645.939766 -11446.393285   -965.419469
PE31  18947.119808  19588.006454  11547.289882    -44.348546
PE33 -11981.413766  20493.042307 -17676.330236     16.236404
PE34  11511.152611 -20493.308894  17989.352197   -148.163462
PE36  25147.324482 -15608.148850    574.343623   -316.461862
PG02 -10878.779649  20414.573809 -12245.572556   -305.961607
PG03   1033.104977  15994.748747 -21364.497787    609.796227
PG04   -903.105721  26200.461527  -3705.980288    485.872933
PG05  15189.098294  -8513.977456  19899.105384   -194.179351
PG06  21176.921726  -1910.971410 -15918.456135   -144.152391
PG07   5468.047836  15109.262802  21628.309220    -18.130119
PG08  -7431.529740  20816.686610  14270.954418    423.504587
PG09   6744.939323  25118.764091   5109.098545    460.710430
PG10 -24560.622899 -10527.444497   -953.022834   -210.470429
PG11  23385.420753 -11831.951955  -4054.438155   -751.455643
PG12   4484.306306 -14880.686915 -21829.616237   -554.559057
PG13  13142.430463 -13520.102676  18373.726387    687.571451
PG14  23171.036467  13029.081552   2415.099808    547.760835
PG15   4339.929125 -22143.488308  13370.183473    232.307118
PG16 -19784.374148   2807.242070  17367.325754   -118.664368
PG17  12886.706936  14254.496833 -17832.258355    543.823990
PG18  -7084.150963 -13217.897012  21942.037166   -660.598327
PG19  15028.114136   3838.183539 -21740.038409    567.127989
PG20  23534.024036  -2778.919297  11929.560200    368.396303
PG21 -15354.989184  19683.748550  -6851.496334     96.506628
PG22  24033.208650   9242.362464  -5414.378458    -82.223316
PG23 -17656.225674 -16070.101725  11918.767085    371.119625
PG24  11437.261604 -21170.951255 -11246.024229   -477.920442
PG25 -10551.239713 -17844.248002 -17105.010757    498.686402
PG26 -25406.508411  -2871.532107   7717.767083     12.961684
PG27 -13075.925069  10533.118060  20173.002228    -34.595208
PG28 -20243.011610    351.925893 -17209.996225   -490.538658
PG29  -3997.751699 -25714.336148   4936.942362   -560.848274
PG30  16187.971548   6690.113478  20183.723478   -274.082288
PG31 -23789.855190   8584.830339  -8944.264354   -221.107274
PG32 -14641.551409 -10698.689383 -19256.567483   -568.306639
PJ02 -26966.994709  21804.634624  29191.495243      0.258326
PJ03 -34746.202643  23702.164183   1991.711879     -7.584528
PJ04 -20580.297486  24792.844172 -22215.248485     21.542802
PJ07 -25397.927090  33657.777535     23.696283     -0.064653
PR01  -8193.431292   7674.699032 -22907.166289    105.644723
PR02   2335.941963  20669.754244 -14668.413892    -39.429159
PR03  12077.300988  22329.287124   2138.882361    112.063023
PR04  14515.339551  11999.662356  17217.603227    265.676114
PR05   9511.629308  -4841.787309  23175.215688    141.255461
PR06  -4048.042466 -21248.742935  13525.451182   -190.585616
PR07 -12182.350403 -22311.226818  -2428.882959     95.692360
PR08 -14678.612340 -11701.039984 -17237.210559     -6.254993
PR09   5812.360025 -10887.281854 -22318.290621    222.683764
PR10 -10985.933289 -10447.781291 -20551.713540   -249.292365
PR11 -24004.197876  -4752.482636  -7165.413517      6.068039
PR12 -21922.947531   4540.609546  12256.711135     47.639587
PR13  -8687.029026  10041.101154  21763.092729    -53.901790
PR14  12924.152393  10168.687955  19513.405373     27.256852
PR15  24580.068497   4148.066732   5440.506544     73.690900
PR16  22026.082913  -4432.691268 -12106.026567     31.056128
PR17   1803.606562  14462.674432 -20930.675005    143.195877
PR18  12391.110567    -75.949131 -22280.215730    173.712451
PR19  17228.772763 -12654.058386 -13903.417120   -299.837388
PR20  12068.468966 -21363.348044   7056.132438   -122.430475
PR21   -896.414765 -15111.945720  20528.253166   -154.537406
PR22 -13316.611237    677.264209  21775.660273    -22.099418
PR23 -17070.813714  14984.079702  11608.414612   -139.659169
PR24 -10633.736242  21976.909890  -7401.570163    -81.686738
PR26 -14863.040219 -13101.710714 -16038.711273   -133.308980
EOF
